NORAD_CAT_ID,OBJECT_NAME,OBJECT_TYPE,EPOCH,MEAN_MOTION,ECCENTRICITY,INCLINATION,RA_OF_ASC_NODE,ARG_OF_PERICENTER,MEAN_ANOMALY,BSTAR,MEAN_MOTION_DOT,MEAN_MOTION_DDOT,TLE_LINE0,TLE_LINE1,TLE_LINE2,SEMIMAJOR_AXIS,PERIOD,APOGEE,PERIGEE,DECAYED
55431.0,STARLINK-5643,PAYLOAD,2024-01-22 00:56:34,14.98291956,0.0003026,69.9987,245.35,265.3672,94.7141,-0.00036585,-4.451e-05,0.0,0 STARLINK-5643,1 55431U 23014AS  24022.03928762 -.00004451  00000-0 -36585-3 0  9991,2 55431  69.9987 245.3500 0003026 265.3672  94.7141 14.98291956 54132,6950.311,96.109,574.279,570.072,0.0
55431.0,STARLINK-5643,PAYLOAD,2024-01-22 20:10:09,14.98318927,0.00032,69.9983,243.3285,267.5404,92.5389,-8.0243e-05,-1.05e-05,0.0,0 STARLINK-5643,1 55431U 23014AS  24022.84039169 -.00001050  00000-0 -80243-4 0  9997,2 55431  69.9983 243.3285 0003200 267.5404  92.5389 14.98318927 54258,6950.227,96.108,574.316,569.868,0.0
55431.0,STARLINK-5643,PAYLOAD,2024-01-22 21:46:17,14.98323055,0.0002874,69.9989,243.162,254.644,105.4401,-2.5501e-05,-3.97e-06,0.0,0 STARLINK-5643,1 55431U 23014AS  24022.90714702 -.00000397  00000-0 -25501-4 0  9996,2 55431  69.9989 243.1620 0002874 254.6440 105.4401 14.98323055 55201,6950.214,96.107,574.077,570.082,0.0
55431.0,STARLINK-5643,PAYLOAD,2024-01-23 00:58:33,14.98322207,0.0002741,69.9994,242.824,259.6365,100.4485,1.5424e-06,-7.5e-07,0.0,0 STARLINK-5643,1 55431U 23014AS  24023.04066845 -.00000075  00000-0  15424-5 0  9996,2 55431  69.9994 242.8240 0002741 259.6365 100.4485 14.98322207 55222,6950.217,96.107,573.987,570.177,0.0
55431.0,STARLINK-5643,PAYLOAD,2024-01-23 16:59:53,14.9833985,0.0003108,69.9982,241.14,265.6964,94.384,-4.3832e-06,-1.45e-06,0.0,0 STARLINK-5643,1 55431U 23014AS  24023.70825804 -.00000145  00000-0 -43832-5 0  9990,2 55431  69.9982 241.1400 0003108 265.6964  94.3840 14.98339850 54383,6950.162,96.106,574.188,569.867,0.0
55431.0,STARLINK-5643,PAYLOAD,2024-01-23 21:48:17,14.98337004,0.0003199,69.9982,240.6353,270.3954,89.6839,4.5505e-05,4.5e-06,0.0,0 STARLINK-5643,1 55431U 23014AS  24023.90853767  .00000450  00000-0  45505-4 0  9996,2 55431  69.9982 240.6353 0003199 270.3954  89.6839 14.98337004 55358,6950.171,96.107,574.26,569.813,0.0
55431.0,STARLINK-5643,PAYLOAD,2024-01-23 23:24:25,14.98337753,0.0003088,69.9983,240.4671,266.6945,93.3861,5.5325e-05,5.67e-06,0.0,0 STARLINK-5643,1 55431U 23014AS  24023.97529665  .00000567  00000-0  55325-4 0  9990,2 55431  69.9983 240.4671 0003088 266.6945  93.3861 14.98337753 55364,6950.169,96.107,574.18,569.888,0.0
55431.0,STARLINK-5643,PAYLOAD,2024-01-24 20:14:10,14.98341794,0.0003338,69.998,238.2782,266.2453,93.8325,0.00015913,1.807e-05,0.0,0 STARLINK-5643,1 55431U 23014AS  24024.84317159  .00001807  00000-0  15913-3 0  9996,2 55431  69.9980 238.2782 0003338 266.2453  93.8325 14.98341794 54557,6950.156,96.106,574.341,569.701,0.0
55431.0,STARLINK-5643,PAYLOAD,2024-01-24 21:50:17,14.98342774,0.0003308,69.998,238.1098,265.2327,94.8454,0.0001686,1.92e-05,0.0,0 STARLINK-5643,1 55431U 23014AS  24024.90992990  .00001920  00000-0  16860-3 0  9993,2 55431  69.9980 238.1098 0003308 265.2327  94.8454 14.98342774 55501,6950.153,96.106,574.317,569.719,0.0
55431.0,STARLINK-5643,PAYLOAD,2024-01-24 23:26:25,14.98343918,0.0003286,69.998,237.9417,263.6932,96.3853,0.00017922,2.047e-05,0.0,0 STARLINK-5643,1 55431U 23014AS  24024.97668832  .00002047  00000-0  17922-3 0  9996,2 55431  69.9980 237.9417 0003286 263.6932  96.3853 14.98343918 55514,6950.15,96.106,574.299,569.731,0.0
55431.0,STARLINK-5643,PAYLOAD,2024-01-25 20:16:10,14.98337557,0.0003029,69.9992,235.7552,252.1954,107.8874,-5.4843e-06,-1.58e-06,0.0,0 STARLINK-5643,1 55431U 23014AS  24025.84457123 -.00000158  00000-0 -54843-5 0  9990,2 55431  69.9992 235.7552 0003029 252.1954 107.8874 14.98337557 54708,6950.17,96.107,574.14,569.929,0.0
55431.0,STARLINK-5643,PAYLOAD,2024-01-25 21:52:19,14.9833586,0.0003053,69.9992,235.5872,256.5754,103.5064,-3.105e-05,-4.64e-06,0.0,0 STARLINK-5643,1 55431U 23014AS  24025.91133279 -.00000464  00000-0 -31050-4 0  9995,2 55431  69.9992 235.5872 0003053 256.5754 103.5064 14.98335860 55658,6950.175,96.107,574.162,569.918,0.0
55431.0,STARLINK-5643,PAYLOAD,2024-01-26 13:53:39,14.98340092,0.0003072,69.9989,233.9025,265.1592,94.9216,-4.0651e-05,-5.78e-06,0.0,0 STARLINK-5643,1 55431U 23014AS  24026.57892726 -.00000578  00000-0 -40651-4 0  9990,2 55431  69.9989 233.9025 0003072 265.1592  94.9216 14.98340092 55759,6950.162,96.106,574.162,569.892,0.0
55431.0,STARLINK-5643,PAYLOAD,2024-01-26 23:30:27,14.9833906,0.00031,69.9989,232.8926,265.2364,94.8441,-4.8384e-05,-6.7e-06,0.0,0 STARLINK-5643,1 55431U 23014AS  24026.97948557 -.00000670  00000-0 -48384-4 0  9992,2 55431  69.9989 232.8926 0003100 265.2364  94.8441 14.98339060 54871,6950.165,96.106,574.184,569.875,0.0
55431.0,STARLINK-5643,PAYLOAD,2024-01-27 13:55:40,14.98331429,0.0003121,69.999,231.378,267.9197,92.1605,3.3275e-05,3.04e-06,0.0,0 STARLINK-5643,1 55431U 23014AS  24027.58032637  .00000304  00000-0  33275-4 0  9998,2 55431  69.9990 231.3780 0003121 267.9197  92.1605 14.98331429 55900,6950.188,96.107,574.223,569.884,0.0
55431.0,STARLINK-5643,PAYLOAD,2024-01-27 20:20:12,14.98331106,0.0003129,69.9992,230.7048,268.431,91.6491,2.7347e-05,2.33e-06,0.0,0 STARLINK-5643,1 55431U 23014AS  24027.84736655  .00000233  00000-0  27347-4 0  9992,2 55431  69.9992 230.7048 0003129 268.4310  91.6491 14.98331106 55003,6950.189,96.107,574.229,569.88,0.0
55431.0,STARLINK-5643,PAYLOAD,2024-01-27 21:56:20,14.98330525,0.0003136,69.9992,230.5365,268.6188,91.4611,1.8039e-05,1.22e-06,0.0,0 STARLINK-5643,1 55431U 23014AS  24027.91412682  .00000122  00000-0  18039-4 0  9996,2 55431  69.9992 230.5365 0003136 268.6188  91.4611 14.98330525 55956,6950.191,96.107,574.236,569.877,0.0
55431.0,STARLINK-5643,PAYLOAD,2024-01-28 13:57:41,14.9833279,0.000308,69.9994,228.8536,268.2272,91.8535,2.3983e-05,1.93e-06,0.0,0 STARLINK-5643,1 55431U 23014AS  24028.58172456  .00000193  00000-0  23983-4 0  9994,2 55431  69.9994 228.8536 0003080 268.2272  91.8535 14.98332790 56053,6950.184,96.107,574.19,569.909,0.0
55431.0,STARLINK-5643,PAYLOAD,2024-01-28 21:58:21,14.98333197,0.0003079,69.9995,228.012,267.7979,92.2827,2.7364e-05,2.34e-06,0.0,0 STARLINK-5643,1 55431U 23014AS  24028.91552353  .00000234  00000-0  27364-4 0  9992,2 55431  69.9995 228.0120 0003079 267.7979  92.2827 14.98333197 56108,6950.183,96.107,574.188,569.908,0.0
55431.0,STARLINK-5643,PAYLOAD,2024-01-28 23:34:29,14.98333652,0.0003074,69.9995,227.8436,267.2531,92.8276,3.2266e-05,2.92e-06,0.0,0 STARLINK-5643,1 55431U 23014AS  24028.98228294  .00000292  00000-0  32266-4 0  9994,2 55431  69.9995 227.8436 0003074 267.2531  92.8276 14.98333652 55175,6950.182,96.107,574.183,569.91,0.0
55431.0,STARLINK-5643,PAYLOAD,2024-01-29 12:23:33,14.98330793,0.000308,69.9995,226.4974,265.4747,94.6061,3.4226e-05,3.15e-06,0.0,0 STARLINK-5643,1 55431U 23014AS  24029.51636360  .00000315  00000-0  34226-4 0  9995,2 55431  69.9995 226.4974 0003080 265.4747  94.6061 14.98330793 56191,6950.19,96.107,574.196,569.915,0.0
55431.0,STARLINK-5643,PAYLOAD,2024-01-29 23:36:30,14.98330685,0.0003084,69.9995,225.3192,265.9062,94.1745,2.815e-05,2.43e-06,0.0,0 STARLINK-5643,1 55431U 23014AS  24029.98368357  .00000243  00000-0  28150-4 0  9993,2 55431  69.9995 225.3192 0003084 265.9062  94.1745 14.98330685 55328,6950.191,96.107,574.199,569.912,0.0
55431.0,STARLINK-5643,PAYLOAD,2024-01-30 14:01:42,14.98331338,0.0003089,69.9995,223.804,266.1814,93.8992,3.7848e-07,-8.9e-07,0.0,0 STARLINK-5643,1 55431U 23014AS  24030.58452362 -.00000089  00000-0  37848-6 0  9996,2 55431  69.9995 223.8040 0003089 266.1814  93.8992 14.98331338 56356,6950.189,96.107,574.201,569.907,0.0
55431.0,STARLINK-5643,PAYLOAD,2024-01-30 22:02:23,14.98332243,0.0003078,69.9995,222.9624,266.3099,93.7708,1.027e-05,3e-07,0.0,0 STARLINK-5643,1 55431U 23014AS  24030.91832224  .00000030  00000-0  10270-4 0  9995,2 55431  69.9995 222.9624 0003078 266.3099  93.7708 14.98332243 56405,6950.186,96.107,574.19,569.912,0.0
55431.0,STARLINK-5643,PAYLOAD,2024-01-31 12:27:35,14.98328517,0.0003057,69.9995,221.4474,267.2965,92.7845,9.5312e-06,2.1e-07,0.0,0 STARLINK-5643,1 55431U 23014AS  24031.51916452  .00000021  00000-0  95312-5 0  9999,2 55431  69.9995 221.4474 0003057 267.2965  92.7845 14.98328517 55556,6950.197,96.107,574.187,569.938,0.0
55431.0,STARLINK-5643,PAYLOAD,2024-01-31 22:04:24,14.98329148,0.0003061,69.9995,220.4375,268.0952,91.9856,1.4571e-05,8.1e-07,0.0,0 STARLINK-5643,1 55431U 23014AS  24031.91972424  .00000081  00000-0  14571-4 0  9997,2 55431  69.9995 220.4375 0003061 268.0952  91.9856 14.98329148 56550,6950.196,96.107,574.188,569.933,0.0
55431.0,STARLINK-5643,PAYLOAD,2024-02-01 22:06:25,14.98326038,0.0002972,69.9998,217.9126,268.1149,91.967,-9.7882e-06,-2.1e-06,0.0,0 STARLINK-5643,1 55431U 23014AS  24032.92112880 -.00000210  00000-0 -97882-5 0  9994,2 55431  69.9998 217.9126 0002972 268.1149  91.9670 14.98326038 56703,6950.205,96.107,574.136,570.005,0.0
55431.0,STARLINK-5643,PAYLOAD,2024-02-02 14:07:46,14.98322757,0.000283,69.9994,216.228,272.4313,87.6522,-6.6085e-06,-1.72e-06,0.0,0 STARLINK-5643,1 55431U 23014AS  24033.58873366 -.00000172  00000-0 -66085-5 0  9998,2 55431  69.9994 216.2280 0002830 272.4313  87.6522 14.98322757 56809,6950.215,96.107,574.047,570.113,0.0
55431.0,STARLINK-5643,PAYLOAD,2024-02-02 22:08:27,14.98322204,0.0002945,70.0001,215.3873,271.5048,88.5774,-2.1263e-05,-3.47e-06,0.0,0 STARLINK-5643,1 55431U 23014AS  24033.92253582 -.00000347  00000-0 -21263-4 0  9990,2 55431  70.0001 215.3873 0002945 271.5048  88.5774 14.98322204 56852,6950.217,96.107,574.129,570.035,0.0
55431.0,STARLINK-5643,PAYLOAD,2024-02-03 12:33:39,14.98322482,0.0003176,69.9995,213.8724,270.4025,89.677,7.0916e-05,7.53e-06,0.0,0 STARLINK-5643,1 55431U 23014AS  24034.52337433  .00000753  00000-0  70916-4 0  9993,2 55431  69.9995 213.8724 0003176 270.4025  89.6770 14.98322482 56945,6950.216,96.107,574.289,569.874,0.0
